start=new Date('2022-02-04T00:00:00.000Z').valueOf();
sats=[{"PERIAPSIS":"546.122","RA_OF_ASC_NODE":"351.9075","MEAN_MOTION_DDOT":"0.0000000000000","OBJECT_TYPE":"PAYLOAD","ARG_OF_PERICENTER":"79.9688","NORAD_CAT_ID":"48643","SITE":"AFETR","FILE":"3291273","MEAN_ANOMALY":"280.1476","TLE_LINE2":"2 48643  53.0564 351.9075 0001550  79.9688 280.1476 15.06406016 38411","CENTER_NAME":"EARTH","RCS_SIZE":"LARGE","INCLINATION":"53.0564","DECAY_DATE":null,"LAUNCH_DATE":"2021-05-26","MEAN_ELEMENT_THEORY":"SGP4","TIME_SYSTEM":"UTC","SEMIMAJOR_AXIS":"6925.330","REV_AT_EPOCH":"3841","ECCENTRICITY":"0.00015500","OBJECT_ID":"2021-044F","APOAPSIS":"548.269","EPOCH":"2022-02-03T22:00:23.494176","MEAN_MOTION":"15.06406016","TLE_LINE1":"1 48643U 21044F   22034.91693859  .00000618  00000-0  60348-4 0  9997","ELEMENT_SET_NO":"999","COUNTRY_CODE":"US","MEAN_MOTION_DOT":"0.00000618","BSTAR":"0.00006034800000","PERIOD":"95.592","REF_FRAME":"TEME","GP_ID":"195260976","CLASSIFICATION_TYPE":"U","EPHEMERIS_TYPE":"0","OBJECT_NAME":"STARLINK-2704"},{"BSTAR":"0.00017120000000","PERIOD":"95.592","REF_FRAME":"TEME","CLASSIFICATION_TYPE":"U","GP_ID":"195261226","EPHEMERIS_TYPE":"0","OBJECT_NAME":"STARLINK-2695","TIME_SYSTEM":"UTC","MEAN_ELEMENT_THEORY":"SGP4","SEMIMAJOR_AXIS":"6925.350","REV_AT_EPOCH":"3840","ECCENTRICITY":"0.00015400","OBJECT_ID":"2021-044G","APOAPSIS":"548.281","EPOCH":"2022-02-03T20:19:33.532896","MEAN_MOTION":"15.06399647","TLE_LINE1":"1 48644U 21044G   22034.84691589  .00002269  00000-0  17120-3 0  9991","COUNTRY_CODE":"US","MEAN_MOTION_DOT":"0.00002269","ELEMENT_SET_NO":"999","TLE_LINE2":"2 48644  53.0571 352.2364 0001540  58.0329 302.0809 15.06399647 38408","RCS_SIZE":"LARGE","CENTER_NAME":"EARTH","INCLINATION":"53.0571","LAUNCH_DATE":"2021-05-26","DECAY_DATE":null,"PERIAPSIS":"546.148","RA_OF_ASC_NODE":"352.2364","MEAN_MOTION_DDOT":"0.0000000000000","OBJECT_TYPE":"PAYLOAD","NORAD_CAT_ID":"48644","ARG_OF_PERICENTER":"58.0329","SITE":"AFETR","FILE":"3291273","MEAN_ANOMALY":"302.0809"},{"SITE":"AFETR","FILE":"3291273","MEAN_ANOMALY":"298.3693","PERIAPSIS":"545.995","RA_OF_ASC_NODE":"351.9522","NORAD_CAT_ID":"48645","OBJECT_TYPE":"PAYLOAD","MEAN_MOTION_DDOT":"0.0000000000000","ARG_OF_PERICENTER":"61.7473","INCLINATION":"53.0567","DECAY_DATE":null,"LAUNCH_DATE":"2021-05-26","TLE_LINE2":"2 48645  53.0567 351.9522 0001745  61.7473 298.3693 15.06403227 38413","RCS_SIZE":"LARGE","CENTER_NAME":"EARTH","APOAPSIS":"548.412","EPOCH":"2022-02-03T21:49:47.630784","MEAN_MOTION":"15.06403227","TLE_LINE1":"1 48645U 21044H   22034.90957906  .00001457  00000-0  11670-3 0  9999","ELEMENT_SET_NO":"999","COUNTRY_CODE":"US","MEAN_MOTION_DOT":"0.00001457","MEAN_ELEMENT_THEORY":"SGP4","TIME_SYSTEM":"UTC","SEMIMAJOR_AXIS":"6925.339","REV_AT_EPOCH":"3841","OBJECT_ID":"2021-044H","ECCENTRICITY":"0.00017450","EPHEMERIS_TYPE":"0","OBJECT_NAME":"STARLINK-2733","BSTAR":"0.00011670000000","PERIOD":"95.592","REF_FRAME":"TEME","CLASSIFICATION_TYPE":"U","GP_ID":"195261975"},{"TLE_LINE2":"2 48646  53.0562 353.4400 0001270  84.0629 276.0505 15.06398734 38360","RCS_SIZE":"LARGE","CENTER_NAME":"EARTH","INCLINATION":"53.0562","LAUNCH_DATE":"2021-05-26","DECAY_DATE":null,"RA_OF_ASC_NODE":"353.4400","PERIAPSIS":"546.338","NORAD_CAT_ID":"48646","OBJECT_TYPE":"PAYLOAD","MEAN_MOTION_DDOT":"0.0000000000000","ARG_OF_PERICENTER":"84.0629","SITE":"AFETR","FILE":"3291268","MEAN_ANOMALY":"276.0505","PERIOD":"95.592","BSTAR":"0.00010217000000","REF_FRAME":"TEME","GP_ID":"195235741","CLASSIFICATION_TYPE":"U","EPHEMERIS_TYPE":"0","OBJECT_NAME":"STARLINK-2732","MEAN_ELEMENT_THEORY":"SGP4","TIME_SYSTEM":"UTC","SEMIMAJOR_AXIS":"6925.352","REV_AT_EPOCH":"3836","ECCENTRICITY":"0.00012700","OBJECT_ID":"2021-044J","APOAPSIS":"548.097","TLE_LINE1":"1 48646U 21044J   22034.57416190  .00001241  00000-0  10217-3 0  9995","MEAN_MOTION":"15.06398734","EPOCH":"2022-02-03T13:46:47.588160","COUNTRY_CODE":"US","MEAN_MOTION_DOT":"0.00001241","ELEMENT_SET_NO":"999"},{"RCS_SIZE":"LARGE","CENTER_NAME":"EARTH","TLE_LINE2":"2 48647  53.0565 351.9852 0001482  77.3859 282.7296 15.06402664 38418","DECAY_DATE":null,"LAUNCH_DATE":"2021-05-26","INCLINATION":"53.0565","OBJECT_TYPE":"PAYLOAD","NORAD_CAT_ID":"48647","MEAN_MOTION_DDOT":"0.0000000000000","ARG_OF_PERICENTER":"77.3859","RA_OF_ASC_NODE":"351.9852","PERIAPSIS":"546.179","MEAN_ANOMALY":"282.7296","FILE":"3291273","SITE":"AFETR","GP_ID":"195261476","CLASSIFICATION_TYPE":"U","REF_FRAME":"TEME","PERIOD":"95.592","BSTAR":"0.00011808000000","OBJECT_NAME":"STARLINK-2691","EPHEMERIS_TYPE":"0","OBJECT_ID":"2021-044K","ECCENTRICITY":"0.00014820","REV_AT_EPOCH":"3841","SEMIMAJOR_AXIS":"6925.340","MEAN_ELEMENT_THEORY":"SGP4","TIME_SYSTEM":"UTC","MEAN_MOTION_DOT":"0.00001478","COUNTRY_CODE":"US","ELEMENT_SET_NO":"999","TLE_LINE1":"1 48647U 21044K   22034.90219949  .00001478  00000-0  11808-3 0  9995","MEAN_MOTION":"15.06402664","EPOCH":"2022-02-03T21:39:10.035936","APOAPSIS":"548.232"},{"DECAY_DATE":null,"LAUNCH_DATE":"2021-05-26","INCLINATION":"53.0572","CENTER_NAME":"EARTH","RCS_SIZE":"LARGE","TLE_LINE2":"2 48648  53.0572 351.9855 0001622  74.1257 285.9911 15.06413225 38417","MEAN_ANOMALY":"285.9911","SITE":"AFETR","FILE":"3291273","NORAD_CAT_ID":"48648","OBJECT_TYPE":"PAYLOAD","MEAN_MOTION_DDOT":"0.0000000000000","ARG_OF_PERICENTER":"74.1257","RA_OF_ASC_NODE":"351.9855","PERIAPSIS":"546.050","OBJECT_NAME":"STARLINK-2521","EPHEMERIS_TYPE":"0","GP_ID":"195261726","CLASSIFICATION_TYPE":"U","PERIOD":"95.591","BSTAR":"0.00022380000000","REF_FRAME":"TEME","MEAN_MOTION_DOT":"0.00003055","COUNTRY_CODE":"US","ELEMENT_SET_NO":"999","APOAPSIS":"548.296","TLE_LINE1":"1 48648U 21044L   22034.90125683  .00003055  00000-0  22380-3 0  9997","MEAN_MOTION":"15.06413225","EPOCH":"2022-02-03T21:37:48.590112","REV_AT_EPOCH":"3841","ECCENTRICITY":"0.00016220","OBJECT_ID":"2021-044L","MEAN_ELEMENT_THEORY":"SGP4","TIME_SYSTEM":"UTC","SEMIMAJOR_AXIS":"6925.308"},{"MEAN_MOTION_DDOT":"0.0000000000000","OBJECT_TYPE":"PAYLOAD","NORAD_CAT_ID":"48649","ARG_OF_PERICENTER":"59.0937","RA_OF_ASC_NODE":"351.9893","PERIAPSIS":"545.927","MEAN_ANOMALY":"301.0220","SITE":"AFETR","FILE":"3291273","RCS_SIZE":"LARGE","CENTER_NAME":"EARTH","TLE_LINE2":"2 48649  53.0556 351.9893 0001711  59.0937 301.0220 15.06433129 38405","LAUNCH_DATE":"2021-05-26","DECAY_DATE":null,"INCLINATION":"53.0556","REV_AT_EPOCH":"3840","OBJECT_ID":"2021-044M","ECCENTRICITY":"0.00017110","MEAN_ELEMENT_THEORY":"SGP4","TIME_SYSTEM":"UTC","SEMIMAJOR_AXIS":"6925.247","COUNTRY_CODE":"US","ELEMENT_SET_NO":"999","MEAN_MOTION_DOT":"0.00025789","APOAPSIS":"548.297","TLE_LINE1":"1 48649U 21044M   22034.89853250  .00025789  00000-0  17423-2 0  9993","EPOCH":"2022-02-03T21:33:53.208000","MEAN_MOTION":"15.06433129","CLASSIFICATION_TYPE":"U","GP_ID":"195262475","PERIOD":"95.590","BSTAR":"0.00174230000000","REF_FRAME":"TEME","OBJECT_NAME":"STARLINK-2673","EPHEMERIS_TYPE":"0"},{"APOAPSIS":"548.158","TLE_LINE1":"1 48650U 21044N   22034.89484935  .00002774  00000-0  20501-3 0  9996","MEAN_MOTION":"15.06410290","EPOCH":"2022-02-03T21:28:34.983840","MEAN_MOTION_DOT":"0.00002774","COUNTRY_CODE":"US","ELEMENT_SET_NO":"999","MEAN_ELEMENT_THEORY":"SGP4","TIME_SYSTEM":"UTC","SEMIMAJOR_AXIS":"6925.317","REV_AT_EPOCH":"3840","OBJECT_ID":"2021-044N","ECCENTRICITY":"0.00014090","EPHEMERIS_TYPE":"0","OBJECT_NAME":"STARLINK-2672","PERIOD":"95.591","BSTAR":"0.00020501000000","REF_FRAME":"TEME","CLASSIFICATION_TYPE":"U","GP_ID":"195262728","SITE":"AFETR","FILE":"3291273","MEAN_ANOMALY":"276.7620","RA_OF_ASC_NODE":"352.0134","PERIAPSIS":"546.206","MEAN_MOTION_DDOT":"0.0000000000000","OBJECT_TYPE":"PAYLOAD","NORAD_CAT_ID":"48650","ARG_OF_PERICENTER":"83.3530","INCLINATION":"53.0564","LAUNCH_DATE":"2021-05-26","DECAY_DATE":null,"TLE_LINE2":"2 48650  53.0564 352.0134 0001409  83.3530 276.7620 15.06410290 38405","CENTER_NAME":"EARTH","RCS_SIZE":"LARGE"},{"LAUNCH_DATE":"2021-05-26","DECAY_DATE":null,"INCLINATION":"53.0578","RCS_SIZE":"LARGE","CENTER_NAME":"EARTH","TLE_LINE2":"2 48651  53.0578 354.4067 0001551  64.0572 296.0577 15.06399745 38320","MEAN_ANOMALY":"296.0577","FILE":"3291268","SITE":"AFETR","OBJECT_TYPE":"PAYLOAD","MEAN_MOTION_DDOT":"0.0000000000000","ARG_OF_PERICENTER":"64.0572","NORAD_CAT_ID":"48651","PERIAPSIS":"546.140","RA_OF_ASC_NODE":"354.4067","OBJECT_NAME":"STARLINK-2731","EPHEMERIS_TYPE":"0","GP_ID":"195236491","CLASSIFICATION_TYPE":"U","REF_FRAME":"TEME","BSTAR":"0.00006527700000","PERIOD":"95.592","ELEMENT_SET_NO":"999","COUNTRY_CODE":"US","MEAN_MOTION_DOT":"0.00000691","MEAN_MOTION":"15.06399745","EPOCH":"2022-02-03T08:38:56.660928","TLE_LINE1":"1 48651U 21044P   22034.36037802  .00000691  00000-0  65277-4 0  9992","APOAPSIS":"548.288","ECCENTRICITY":"0.00015510","OBJECT_ID":"2021-044P","REV_AT_EPOCH":"3832","SEMIMAJOR_AXIS":"6925.349","MEAN_ELEMENT_THEORY":"SGP4","TIME_SYSTEM":"UTC"},{"SITE":"AFETR","FILE":"3291268","MEAN_ANOMALY":"289.1143","PERIAPSIS":"546.064","RA_OF_ASC_NODE":"354.7235","MEAN_MOTION_DDOT":"0.0000000000000","OBJECT_TYPE":"PAYLOAD","NORAD_CAT_ID":"48652","ARG_OF_PERICENTER":"71.0027","INCLINATION":"53.0571","DECAY_DATE":null,"LAUNCH_DATE":"2021-05-26","TLE_LINE2":"2 48652  53.0571 354.7235 0001674  71.0027 289.1143 15.06396895 38317","CENTER_NAME":"EARTH","RCS_SIZE":"LARGE","APOAPSIS":"548.382","MEAN_MOTION":"15.06396895","EPOCH":"2022-02-03T06:58:05.830464","TLE_LINE1":"1 48652U 21044Q   22034.29034526  .00002799  00000-0  20675-3 0  9998","COUNTRY_CODE":"US","ELEMENT_SET_NO":"999","MEAN_MOTION_DOT":"0.00002799","TIME_SYSTEM":"UTC","MEAN_ELEMENT_THEORY":"SGP4","SEMIMAJOR_AXIS":"6925.358","REV_AT_EPOCH":"3831","OBJECT_ID":"2021-044Q","ECCENTRICITY":"0.00016740","EPHEMERIS_TYPE":"0","OBJECT_NAME":"STARLINK-2727","BSTAR":"0.00020675000000","PERIOD":"95.592","REF_FRAME":"TEME","GP_ID":"195236743","CLASSIFICATION_TYPE":"U"}];
